NOAA 15                 
1 25338U 98030A   25106.39923873  .00000417  00000+0  18907-3 0  9998
2 25338  98.5406 132.8224 0010908 152.5206 207.6554 14.26943205400678
DMSP 5D-3 F16 (USA 172) 
1 28054U 03048A   25106.47365194  .00000282  00000+0  17126-3 0  9998
2 28054  99.0167 121.8124 0006080 275.9642 212.1248 14.14336312109144
NOAA 18                 
1 28654U 05018A   25106.47451479  .00000437  00000+0  25500-3 0  9992
2 28654  98.8428 186.5577 0013055 283.3431  76.6286 14.13576640 26104
METEOSAT-9 (MSG-2)      
1 28912U 05049B   25106.43725221  .00000137  00000+0  00000+0 0  9999
2 28912   8.3875  58.2015 0001226 355.2738 354.4268  1.00270424 70795
EWS-G1 (GOES 13)        
1 29155U 06018A   25105.85326389 -.00000218  00000+0  00000+0 0  9994
2 29155   3.4188  81.6149 0065404 264.3937 332.7365  0.98834391 39028
DMSP 5D-3 F17 (USA 191) 
1 29522U 06050A   25106.39978106  .00000342  00000+0  19981-3 0  9997
2 29522  98.7414 116.7303 0009853 187.8081 172.2940 14.14813145952063
FENGYUN 3A              
1 32958U 08026A   25106.45968325  .00000361  00000+0  19215-3 0  9999
2 32958  98.6439  51.4734 0007589 279.9844  80.0475 14.19420655874970
NOAA 19                 
1 33591U 09005A   25106.40136208  .00000409  00000+0  24171-3 0  9993
2 33591  99.0012 170.7927 0014396 153.4958 206.6953 14.13341551834458
GOES 14                 
1 35491U 09033A   25105.83358764 -.00000056  00000+0  00000+0 0  9994
2 35491   0.5729  88.6628 0000480  22.7880 284.5516  1.00271024  2307
DMSP 5D-3 F18 (USA 210) 
1 35951U 09057A   25106.46636743  .00000606  00000+0  33814-3 0  9990
2 35951  98.8564  84.4737 0011760  29.4777 330.7057 14.14587370799234
EWS-G2 (GOES 15)        
1 36411U 10008A   25106.40947457  .00000048  00000+0  00000+0 0  9998
2 36411   0.1686  86.1757 0001902 196.7226 130.6731  1.00274789 55354
COMS 1                  
1 36744U 10032A   25105.93586531 -.00000332  00000+0  00000+0 0  9990
2 36744   3.7092  80.7768 0001178 321.0236 267.5943  1.00272104 54379
FENGYUN 3B              
1 37214U 10059A   25106.58101353  .00000195  00000+0  12464-3 0  9996
2 37214  99.0191 144.4283 0021300 316.9586 166.4709 14.14713959747148
SUOMI NPP               
1 37849U 11061A   25106.47933396  .00000230  00000+0  13016-3 0  9996
2 37849  98.7544  46.3555 0002486  98.4703 261.6755 14.19519640697890
METEOSAT-10 (MSG-3)     
1 38552U 12035B   25105.74887045  .00000008  00000+0  00000+0 0  9996
2 38552   3.6617  62.0402 0000859 334.9579  77.3461  1.00264493 46573
METOP-B                 
1 38771U 12049A   25106.40924639  .00000302  00000+0  15760-3 0  9999
2 38771  98.5825 162.1356 0001796 120.9928 239.1426 14.21479013652623
INSAT-3D                
1 39216U 13038B   25105.88308847 -.00000329  00000+0  00000+0 0  9998
2 39216   0.8193  88.2779 0001430 271.5827 291.7840  1.00267308 43011
FENGYUN 3C              
1 39260U 13052A   25106.50682904  .00000267  00000+0  15697-3 0  9994
2 39260  98.4529  96.2596 0014887 167.4914 192.6633 14.15606019598269
METEOR-M 2              
1 40069U 14037A   25106.41337035  .00000351  00000+0  18016-3 0  9991
2 40069  98.4660  93.5714 0005460 184.7596 175.3531 14.21272654558690
HIMAWARI-8              
1 40267U 14060A   25105.91946674 -.00000265  00000+0  00000+0 0  9991
2 40267   0.0133 217.1736 0001127 182.0681 276.7350  1.00271198 38585
FENGYUN 2G              
1 40367U 14090A   25105.91129998 -.00000288  00000+0  00000+0 0  9992
2 40367   4.5535  77.9835 0002011 109.5267  84.2034  1.00266162 37710
METEOSAT-11 (MSG-4)     
1 40732U 15034A   25105.89348949  .00000075  00000+0  00000+0 0  9996
2 40732   2.1338  72.2434 0000851 321.6206 141.4977  1.00278514  2936
ELEKTRO-L 2             
1 41105U 15074A   25105.80460731 -.00000104  00000+0  00000+0 0  9994
2 41105   5.6138  75.7692 0002092 241.7170 161.8854  1.00273173 34225
INSAT-3DR               
1 41752U 16054A   25105.89003034 -.00000067  00000+0  00000+0 0  9997
2 41752   0.1308  88.8146 0010823 188.1357 321.7367  1.00273212 31534
HIMAWARI-9              
1 41836U 16064A   25105.91955362 -.00000264  00000+0  00000+0 0  9993
2 41836   0.0224 135.9690 0001330 280.8879 259.2757  1.00272517 30920
GOES 16                 
1 41866U 16071A   25105.87611343 -.00000213  00000+0  00000+0 0  9991
2 41866   0.0622 280.9752 0000833 171.4997 349.2559  1.00133217 30819
CYGFM05                 
1 41884U 16078A   25105.87082169  .00020532  00000+0  51694-3 0  9990
2 41884  34.9602 168.7374 0009134 104.3226 255.8508 15.38949732462547
CYGFM04                 
1 41885U 16078B   25106.41427015  .00026210  00000+0  62468-3 0  9995
2 41885  34.9347 145.4192 0008488 135.2709 224.8695 15.40579307462918
CYGFM02                 
1 41886U 16078C   25105.54300903  .00019884  00000+0  46050-3 0  9993
2 41886  34.9436 151.7539 0010098 117.1972 242.9777 15.41466295462794
CYGFM01                 
1 41887U 16078D   25105.87101366  .00020842  00000+0  51852-3 0  9994
2 41887  34.9436 172.5062 0008619  90.1965 269.9742 15.39314646462470
CYGFM08                 
1 41888U 16078E   25105.82283692  .00021170  00000+0  51211-3 0  9997
2 41888  34.9458 158.0974 0010738 114.7451 245.4386 15.40140702462671
CYGFM07                 
1 41890U 16078G   25106.17470885  .00026141  00000+0  62112-3 0  9996
2 41890  34.9469 146.1366 0009132 138.5610 221.5803 15.40666110462884
CYGFM03                 
1 41891U 16078H   25105.52434856  .00019328  00000+0  46362-3 0  9991
2 41891  34.9425 151.8626 0007642 116.9511 243.1989 15.40437958462615
FENGYUN 3D              
1 43010U 17072A   25106.40262881  .00000271  00000+0  15013-3 0  9992
2 43010  98.9576  69.5828 0001613 148.8990 211.2282 14.19609192384434
NOAA 20 (JPSS-1)        
1 43013U 17073A   25106.42454198  .00000218  00000+0  12443-3 0  9997
2 43013  98.7383  45.7082 0002235  85.3178 274.8253 14.19525966383925
GOES 17                 
1 43226U 18022A   25106.15650725 -.00000083  00000+0  00000+0 0  9995
2 43226   0.0238 296.0033 0002443 149.6886  70.8168  1.00272706 26159
FENGYUN 2H              
1 43491U 18050A   25106.12158134 -.00000119  00000+0  00000+0 0  9994
2 43491   1.9290  84.0642 0000205 153.5018  90.0618  1.00273161 25224
METOP-C                 
1 43689U 18087A   25106.44509870  .00000292  00000+0  15321-3 0  9992
2 43689  98.6781 167.4939 0000478  20.0704 340.0492 14.21514248334208
GEO-KOMPSAT-2A          
1 43823U 18100A   25106.27408906 -.00000333  00000+0  00000+0 0  9998
2 43823   0.0495  57.7394 0002364  14.7449 359.1213  1.00273144 23381
METEOR-M2 2             
1 44387U 19038A   25106.40185854  .00000282  00000+0  14211-3 0  9999
2 44387  98.8712  83.5618 0001802 129.6909 230.4428 14.24187440300541
ARKTIKA-M 1             
1 47719U 21016A   25106.31854710  .00000074  00000+0  00000+0 0  9990
2 47719  63.1424 115.5427 7077505 268.5563  16.8559  2.00605881 30233
FENGYUN 3E              
1 49008U 21062A   25106.44599131  .00000053  00000+0  45708-4 0  9997
2 49008  98.7433 109.8310 0000847 193.9607 166.1546 14.19858761196020
GOES 18                 
1 51850U 22021A   25106.41017437  .00000107  00000+0  00000+0 0  9993
2 51850   0.0224  48.8657 0000396  44.7768 121.8227  1.00272452 11526
NOAA 21 (JPSS-2)        
1 54234U 22150A   25106.10857409  .00000218  00000+0  12422-3 0  9990
2 54234  98.7238  45.7811 0001742  20.3427 339.7818 14.19577593125957
METEOSAT-12 (MTG-I1)    
1 54743U 22170C   25106.17718477  .00000004  00000+0  00000+0 0  9993
2 54743   0.6216  32.5230 0001279 325.9874 269.6194  1.00268459  8697
TIANMU-1 03             
1 55973U 23039A   25106.38083662  .00022701  00000+0  69588-3 0  9996
2 55973  97.4957 264.0484 0004615 178.9916 181.1336 15.33780499115141
TIANMU-1 04             
1 55974U 23039B   25106.40137307  .00022435  00000+0  68312-3 0  9994
2 55974  97.4885 263.3925 0005554 177.0991 183.0284 15.33992510115142
TIANMU-1 05             
1 55975U 23039C   25106.41492843  .00021506  00000+0  65999-3 0  9991
2 55975  97.4931 263.8548 0003971 194.0980 166.0152 15.33759002115130
TIANMU-1 06             
1 55976U 23039D   25106.41484172  .00021849  00000+0  66372-3 0  9994
2 55976  97.4945 264.1431 0004424 192.8630 167.2500 15.34077262115146
METEOR-M2 3             
1 57166U 23091A   25106.45845323  .00000075  00000+0  51707-4 0  9993
2 57166  98.6665 163.7257 0003454 347.0665  13.0425 14.23992539 93784
TIANMU-1 07             
1 57399U 23101A   25106.39904871  .00012279  00000+0  50525-3 0  9995
2 57399  97.3159 161.7421 0004325 182.8872 177.2341 15.24270943 96503
TIANMU-1 08             
1 57400U 23101B   25106.43106796  .00013433  00000+0  55209-3 0  9990
2 57400  97.3147 161.6088 0006153 195.4418 164.6633 15.24278952 96500
TIANMU-1 09             
1 57401U 23101C   25106.41411550  .00013293  00000+0  54541-3 0  9998
2 57401  97.3103 161.2551 0006021 191.7260 168.3839 15.24340641 96506
TIANMU-1 10             
1 57402U 23101D   25106.44542881  .00013562  36985-7  55454-3 0  9996
2 57402  97.3182 161.8847 0007988 194.3786 165.7225 15.24367181 96501
FENGYUN 3F              
1 57490U 23111A   25106.44532649  .00000219  00000+0  12357-3 0  9996
2 57490  98.7296 178.2373 0000464  60.4948 299.6274 14.20028288 88307
ARKTIKA-M 2             
1 58584U 23198A   25106.05976745  .00000166  00000+0  00000+0 0  9991
2 58584  63.2284 201.1911 6881246 269.0533  18.3298  2.00609767  9743
TIANMU-1 11             
1 58645U 23205A   25106.38399812  .00010887  00000+0  48754-3 0  9991
2 58645  97.3770 130.5237 0011944  72.7233 287.5309 15.21370159 72510
TIANMU-1 12             
1 58646U 23205B   25106.40038280  .00011857  00000+0  53000-3 0  9992
2 58646  97.3757 130.4115 0009883  67.7775 292.4508 15.21431746 72509
TIANMU-1 13             
1 58647U 23205C   25106.36556205  .00011316  00000+0  50562-3 0  9990
2 58647  97.3785 130.4930 0009816  50.7027 309.5078 15.21457414 72494
TIANMU-1 14             
1 58648U 23205D   25106.41658574  .00011970  00000+0  53483-3 0  9990
2 58648  97.3714 130.1108 0010462  53.1640 307.0554 15.21436060 72506
TIANMU-1 19             
1 58660U 23208A   25106.42918841  .00015359  00000+0  65233-3 0  9995
2 58660  97.4219 219.1585 0006017  38.4673 321.6992 15.23142720 72193
TIANMU-1 20             
1 58661U 23208B   25106.40785628  .00015413  00000+0  63131-3 0  9995
2 58661  97.4154 219.3507 0008745  44.3065 315.8871 15.24349653 72230
TIANMU-1 21             
1 58662U 23208C   25106.40859081  .00017316  00000+0  67201-3 0  9997
2 58662  97.4196 220.3523 0008203  42.8587 317.3289 15.26135323 72282
TIANMU-1 22             
1 58663U 23208D   25106.41621950  .00014179  00000+0  60189-3 0  9993
2 58663  97.4213 219.2518 0005132  63.2606 296.9156 15.23181811 72208
TIANMU-1 15             
1 58700U 24004A   25105.95176701  .00010364  00000+0  46258-3 0  9990
2 58700  97.4654 288.9284 0008753  73.8613 286.3586 15.21530014 70703
TIANMU-1 16             
1 58701U 24004B   25106.46261445  .00013048  00000+0  58154-3 0  9998
2 58701  97.4586 289.0285 0009016  74.4481 285.7750 15.21516316 70787
TIANMU-1 17             
1 58702U 24004C   25106.45264225  .00012971  00000+0  57990-3 0  9998
2 58702  97.4626 289.3005 0006893  71.8984 288.3002 15.21427990 70772
TIANMU-1 18             
1 58703U 24004D   25106.43124228  .00011618  00000+0  51945-3 0  9996
2 58703  97.4644 289.4291 0006992  64.6697 295.5262 15.21452231 70776
INSAT-3DS               
1 58990U 24033A   25106.12614251 -.00000146  00000+0  00000+0 0  9999
2 58990   0.0673  87.4281 0001782 299.7428 304.8561  1.00272896  4532
METEOR-M2 4             
1 59051U 24039A   25106.40797359  .00000117  00000+0  72054-4 0  9996
2 59051  98.6447  67.5667 0006554 334.9545  25.1314 14.22357703 58597
GOES 19                 
1 60133U 24119A   25106.30510535 -.00000238  00000+0  00000+0 0  9998
2 60133   0.0532  60.3664 0000753 333.1807 205.8204  1.00272229  3021
